KUIPER-00176            
1 65788U 25217AC  25353.83335647 -.00469977  00000+0 -53097-1 0  9996
2 65788  51.9281  36.5770 0004348  11.5311  20.8497 14.88436945  5840
KUIPER-00101            
1 65947U 25228A   25353.83335647  .00003287  00000+0  41633-3 0  9996
2 65947  51.8995 353.8753 0003597  60.0834 355.5707 14.84189447  5848
KUIPER-00113            
1 65948U 25228B   25353.83335647  .00024290  00000+0  18968-2 0  9998
2 65948  51.8899 350.1993 0006443  46.3110 251.8776 15.00972269  5356
KUIPER-00117            
1 65949U 25228C   25353.83335647  .00028425  00000+0  28496-2 0  9990
2 65949  51.9176 351.7712 0010111  54.5338 169.7812 14.91096540  5561
KUIPER-00121            
1 65950U 25228D   25353.83335647 -.00982576  00000+0 -54902-1 0  9990
2 65950  51.8829 348.3218 0006557  58.6632 190.1512 15.15921513  1308
KUIPER-00122            
1 65951U 25228E   25353.83335647 -.00001993  00000+0 -22915-3 0  9997
2 65951  51.8995 356.1812 0001614  16.5587 328.1381 14.80497540  4232
KUIPER-00123            
1 65952U 25228F   25353.83335647 -.00009015  00000+0 -11514-2 0  9993
2 65952  51.8992 356.2018 0001755 132.2256  34.1661 14.80063269  4764
KUIPER-00124            
1 65953U 25228G   25353.83335647 -.01022312  00000+0 -86525-1 0  9993
2 65953  51.9149 349.4085 0005826  56.8371  35.7683 15.00461316  5883
