<?xml version="1.0" encoding="UTF-8"?>
<ndm xmlns:xsi="http://www.w3.org/2001/XMLSchema-instance" xsi:noNamespaceSchemaLocation="https://sanaregistry.org/r/ndmxml_unqualified/ndmxml-2.0.0-master-2.0.xsd">
<omm id="CCSDS_OMM_VERS" version="2.0">
<header><CREATION_DATE/><ORIGINATOR/></header><body><segment><metadata><OBJECT_NAME>KUIPER-00176</OBJECT_NAME><OBJECT_ID>2025-217AC</OBJECT_ID><CENTER_NAME>EARTH</CENTER_NAME><REF_FRAME>TEME</REF_FRAME><TIME_SYSTEM>UTC</TIME_SYSTEM><MEAN_ELEMENT_THEORY>SGP4</MEAN_ELEMENT_THEORY></metadata><data><meanElements><EPOCH>2025-12-19T20:00:01.999008</EPOCH><MEAN_MOTION>14.88436945</MEAN_MOTION><ECCENTRICITY>.0004348</ECCENTRICITY><INCLINATION>51.9281</INCLINATION><RA_OF_ASC_NODE>36.5770</RA_OF_ASC_NODE><ARG_OF_PERICENTER>11.5311</ARG_OF_PERICENTER><MEAN_ANOMALY>20.8497</MEAN_ANOMALY></meanElements><tleParameters><EPHEMERIS_TYPE>0</EPHEMERIS_TYPE><CLASSIFICATION_TYPE>U</CLASSIFICATION_TYPE><NORAD_CAT_ID>65788</NORAD_CAT_ID><ELEMENT_SET_NO>999</ELEMENT_SET_NO><REV_AT_EPOCH>584</REV_AT_EPOCH><BSTAR>-.53097E-1</BSTAR><MEAN_MOTION_DOT>-.469977E-2</MEAN_MOTION_DOT><MEAN_MOTION_DDOT>0</MEAN_MOTION_DDOT></tleParameters></data></segment></body></omm>
<omm id="CCSDS_OMM_VERS" version="2.0">
<header><CREATION_DATE/><ORIGINATOR/></header><body><segment><metadata><OBJECT_NAME>KUIPER-00101</OBJECT_NAME><OBJECT_ID>2025-228A</OBJECT_ID><CENTER_NAME>EARTH</CENTER_NAME><REF_FRAME>TEME</REF_FRAME><TIME_SYSTEM>UTC</TIME_SYSTEM><MEAN_ELEMENT_THEORY>SGP4</MEAN_ELEMENT_THEORY></metadata><data><meanElements><EPOCH>2025-12-19T20:00:01.999008</EPOCH><MEAN_MOTION>14.84189447</MEAN_MOTION><ECCENTRICITY>.0003597</ECCENTRICITY><INCLINATION>51.8995</INCLINATION><RA_OF_ASC_NODE>353.8753</RA_OF_ASC_NODE><ARG_OF_PERICENTER>60.0834</ARG_OF_PERICENTER><MEAN_ANOMALY>355.5707</MEAN_ANOMALY></meanElements><tleParameters><EPHEMERIS_TYPE>0</EPHEMERIS_TYPE><CLASSIFICATION_TYPE>U</CLASSIFICATION_TYPE><NORAD_CAT_ID>65947</NORAD_CAT_ID><ELEMENT_SET_NO>999</ELEMENT_SET_NO><REV_AT_EPOCH>584</REV_AT_EPOCH><BSTAR>.41633E-3</BSTAR><MEAN_MOTION_DOT>.3287E-4</MEAN_MOTION_DOT><MEAN_MOTION_DDOT>0</MEAN_MOTION_DDOT></tleParameters></data></segment></body></omm>
<omm id="CCSDS_OMM_VERS" version="2.0">
<header><CREATION_DATE/><ORIGINATOR/></header><body><segment><metadata><OBJECT_NAME>KUIPER-00113</OBJECT_NAME><OBJECT_ID>2025-228B</OBJECT_ID><CENTER_NAME>EARTH</CENTER_NAME><REF_FRAME>TEME</REF_FRAME><TIME_SYSTEM>UTC</TIME_SYSTEM><MEAN_ELEMENT_THEORY>SGP4</MEAN_ELEMENT_THEORY></metadata><data><meanElements><EPOCH>2025-12-19T20:00:01.999008</EPOCH><MEAN_MOTION>15.00972269</MEAN_MOTION><ECCENTRICITY>.0006443</ECCENTRICITY><INCLINATION>51.8899</INCLINATION><RA_OF_ASC_NODE>350.1993</RA_OF_ASC_NODE><ARG_OF_PERICENTER>46.3110</ARG_OF_PERICENTER><MEAN_ANOMALY>251.8776</MEAN_ANOMALY></meanElements><tleParameters><EPHEMERIS_TYPE>0</EPHEMERIS_TYPE><CLASSIFICATION_TYPE>U</CLASSIFICATION_TYPE><NORAD_CAT_ID>65948</NORAD_CAT_ID><ELEMENT_SET_NO>999</ELEMENT_SET_NO><REV_AT_EPOCH>535</REV_AT_EPOCH><BSTAR>.18968E-2</BSTAR><MEAN_MOTION_DOT>.2429E-3</MEAN_MOTION_DOT><MEAN_MOTION_DDOT>0</MEAN_MOTION_DDOT></tleParameters></data></segment></body></omm>
<omm id="CCSDS_OMM_VERS" version="2.0">
<header><CREATION_DATE/><ORIGINATOR/></header><body><segment><metadata><OBJECT_NAME>KUIPER-00117</OBJECT_NAME><OBJECT_ID>2025-228C</OBJECT_ID><CENTER_NAME>EARTH</CENTER_NAME><REF_FRAME>TEME</REF_FRAME><TIME_SYSTEM>UTC</TIME_SYSTEM><MEAN_ELEMENT_THEORY>SGP4</MEAN_ELEMENT_THEORY></metadata><data><meanElements><EPOCH>2025-12-19T20:00:01.999008</EPOCH><MEAN_MOTION>14.91096540</MEAN_MOTION><ECCENTRICITY>.0010111</ECCENTRICITY><INCLINATION>51.9176</INCLINATION><RA_OF_ASC_NODE>351.7712</RA_OF_ASC_NODE><ARG_OF_PERICENTER>54.5338</ARG_OF_PERICENTER><MEAN_ANOMALY>169.7812</MEAN_ANOMALY></meanElements><tleParameters><EPHEMERIS_TYPE>0</EPHEMERIS_TYPE><CLASSIFICATION_TYPE>U</CLASSIFICATION_TYPE><NORAD_CAT_ID>65949</NORAD_CAT_ID><ELEMENT_SET_NO>999</ELEMENT_SET_NO><REV_AT_EPOCH>556</REV_AT_EPOCH><BSTAR>.28496E-2</BSTAR><MEAN_MOTION_DOT>.28425E-3</MEAN_MOTION_DOT><MEAN_MOTION_DDOT>0</MEAN_MOTION_DDOT></tleParameters></data></segment></body></omm>
<omm id="CCSDS_OMM_VERS" version="2.0">
<header><CREATION_DATE/><ORIGINATOR/></header><body><segment><metadata><OBJECT_NAME>KUIPER-00121</OBJECT_NAME><OBJECT_ID>2025-228D</OBJECT_ID><CENTER_NAME>EARTH</CENTER_NAME><REF_FRAME>TEME</REF_FRAME><TIME_SYSTEM>UTC</TIME_SYSTEM><MEAN_ELEMENT_THEORY>SGP4</MEAN_ELEMENT_THEORY></metadata><data><meanElements><EPOCH>2025-12-19T20:00:01.999008</EPOCH><MEAN_MOTION>15.15921513</MEAN_MOTION><ECCENTRICITY>.0006557</ECCENTRICITY><INCLINATION>51.8829</INCLINATION><RA_OF_ASC_NODE>348.3218</RA_OF_ASC_NODE><ARG_OF_PERICENTER>58.6632</ARG_OF_PERICENTER><MEAN_ANOMALY>190.1512</MEAN_ANOMALY></meanElements><tleParameters><EPHEMERIS_TYPE>0</EPHEMERIS_TYPE><CLASSIFICATION_TYPE>U</CLASSIFICATION_TYPE><NORAD_CAT_ID>65950</NORAD_CAT_ID><ELEMENT_SET_NO>999</ELEMENT_SET_NO><REV_AT_EPOCH>130</REV_AT_EPOCH><BSTAR>-.54902E-1</BSTAR><MEAN_MOTION_DOT>-.982576E-2</MEAN_MOTION_DOT><MEAN_MOTION_DDOT>0</MEAN_MOTION_DDOT></tleParameters></data></segment></body></omm>
<omm id="CCSDS_OMM_VERS" version="2.0">
<header><CREATION_DATE/><ORIGINATOR/></header><body><segment><metadata><OBJECT_NAME>KUIPER-00122</OBJECT_NAME><OBJECT_ID>2025-228E</OBJECT_ID><CENTER_NAME>EARTH</CENTER_NAME><REF_FRAME>TEME</REF_FRAME><TIME_SYSTEM>UTC</TIME_SYSTEM><MEAN_ELEMENT_THEORY>SGP4</MEAN_ELEMENT_THEORY></metadata><data><meanElements><EPOCH>2025-12-19T20:00:01.999008</EPOCH><MEAN_MOTION>14.80497540</MEAN_MOTION><ECCENTRICITY>.0001614</ECCENTRICITY><INCLINATION>51.8995</INCLINATION><RA_OF_ASC_NODE>356.1812</RA_OF_ASC_NODE><ARG_OF_PERICENTER>16.5587</ARG_OF_PERICENTER><MEAN_ANOMALY>328.1381</MEAN_ANOMALY></meanElements><tleParameters><EPHEMERIS_TYPE>0</EPHEMERIS_TYPE><CLASSIFICATION_TYPE>U</CLASSIFICATION_TYPE><NORAD_CAT_ID>65951</NORAD_CAT_ID><ELEMENT_SET_NO>999</ELEMENT_SET_NO><REV_AT_EPOCH>423</REV_AT_EPOCH><BSTAR>-.22915E-3</BSTAR><MEAN_MOTION_DOT>-.1993E-4</MEAN_MOTION_DOT><MEAN_MOTION_DDOT>0</MEAN_MOTION_DDOT></tleParameters></data></segment></body></omm>
<omm id="CCSDS_OMM_VERS" version="2.0">
<header><CREATION_DATE/><ORIGINATOR/></header><body><segment><metadata><OBJECT_NAME>KUIPER-00123</OBJECT_NAME><OBJECT_ID>2025-228F</OBJECT_ID><CENTER_NAME>EARTH</CENTER_NAME><REF_FRAME>TEME</REF_FRAME><TIME_SYSTEM>UTC</TIME_SYSTEM><MEAN_ELEMENT_THEORY>SGP4</MEAN_ELEMENT_THEORY></metadata><data><meanElements><EPOCH>2025-12-19T20:00:01.999008</EPOCH><MEAN_MOTION>14.80063269</MEAN_MOTION><ECCENTRICITY>.0001755</ECCENTRICITY><INCLINATION>51.8992</INCLINATION><RA_OF_ASC_NODE>356.2018</RA_OF_ASC_NODE><ARG_OF_PERICENTER>132.2256</ARG_OF_PERICENTER><MEAN_ANOMALY>34.1661</MEAN_ANOMALY></meanElements><tleParameters><EPHEMERIS_TYPE>0</EPHEMERIS_TYPE><CLASSIFICATION_TYPE>U</CLASSIFICATION_TYPE><NORAD_CAT_ID>65952</NORAD_CAT_ID><ELEMENT_SET_NO>999</ELEMENT_SET_NO><REV_AT_EPOCH>476</REV_AT_EPOCH><BSTAR>-.11514E-2</BSTAR><MEAN_MOTION_DOT>-.9015E-4</MEAN_MOTION_DOT><MEAN_MOTION_DDOT>0</MEAN_MOTION_DDOT></tleParameters></data></segment></body></omm>
<omm id="CCSDS_OMM_VERS" version="2.0">
<header><CREATION_DATE/><ORIGINATOR/></header><body><segment><metadata><OBJECT_NAME>KUIPER-00124</OBJECT_NAME><OBJECT_ID>2025-228G</OBJECT_ID><CENTER_NAME>EARTH</CENTER_NAME><REF_FRAME>TEME</REF_FRAME><TIME_SYSTEM>UTC</TIME_SYSTEM><MEAN_ELEMENT_THEORY>SGP4</MEAN_ELEMENT_THEORY></metadata><data><meanElements><EPOCH>2025-12-19T20:00:01.999008</EPOCH><MEAN_MOTION>15.00461316</MEAN_MOTION><ECCENTRICITY>.0005826</ECCENTRICITY><INCLINATION>51.9149</INCLINATION><RA_OF_ASC_NODE>349.4085</RA_OF_ASC_NODE><ARG_OF_PERICENTER>56.8371</ARG_OF_PERICENTER><MEAN_ANOMALY>35.7683</MEAN_ANOMALY></meanElements><tleParameters><EPHEMERIS_TYPE>0</EPHEMERIS_TYPE><CLASSIFICATION_TYPE>U</CLASSIFICATION_TYPE><NORAD_CAT_ID>65953</NORAD_CAT_ID><ELEMENT_SET_NO>999</ELEMENT_SET_NO><REV_AT_EPOCH>588</REV_AT_EPOCH><BSTAR>-.86525E-1</BSTAR><MEAN_MOTION_DOT>-.1022312E-1</MEAN_MOTION_DOT><MEAN_MOTION_DDOT>0</MEAN_MOTION_DDOT></tleParameters></data></segment></body></omm>

</ndm>
